{"type": "FeatureCollection", "features": [ {"type": "Feature", "properties": {"norad_id": 67019, "name": "STARLINK-35688", "group": "last-30-days", "lat": -66.00139381637332, "lon": 176.68282010379556, "alt_km": 299.0683272165652, "timestamp": "2025-12-20T07:33:49.516735+00:00", "meta": {"OBJECT_NAME": "STARLINK-35688", "OBJECT_ID": "2025-293S", "EPOCH": "2025-12-19T22:00:01.999584", "MEAN_MOTION": 15.93585745, "ECCENTRICITY": 0.0003847, "INCLINATION": 69.9939, "RA_OF_ASC_NODE": 302.9146, "ARG_OF_PERICENTER": 267.3789, "MEAN_ANOMALY": 224.5153, "EPHEMERIS_TYPE": 0, "CLASSIFICATION_TYPE": "U", "NORAD_CAT_ID": 67019, "ELEMENT_SET_NO": 999, "REV_AT_EPOCH": 146, "BSTAR": -0.0034218674, "MEAN_MOTION_DOT": -0.01231426, "MEAN_MOTION_DDOT": 0.00045100395}, "tle": {"line1": "1 67019U 25293S   25353.91668981 -.01231426  45100-3 -34219-2 0  9995", "line2": "2 67019  69.9939 302.9146 0003847 267.3789 224.5153 15.93585745  1464"}}, "geometry": {"type": "Point", "coordinates": [176.68282010379556, -66.00139381637332]}}, {"type": "Feature", "properties": {"norad_id": 67020, "name": "STARLINK-36172", "group": "last-30-days", "lat": -67.40369492090142, "lon": -177.14553716273392, "alt_km": 298.9390866443837, "timestamp": "2025-12-20T07:33:49.516745+00:00", "meta": {"OBJECT_NAME": "STARLINK-36172", "OBJECT_ID": "2025-293T", "EPOCH": "2025-12-19T22:00:01.999584", "MEAN_MOTION": 15.93662265, "ECCENTRICITY": 0.00038526, "INCLINATION": 69.9939, "RA_OF_ASC_NODE": 302.9116, "ARG_OF_PERICENTER": 269.8449, "MEAN_ANOMALY": 224.7795, "EPHEMERIS_TYPE": 0, "CLASSIFICATION_TYPE": "U", "NORAD_CAT_ID": 67020, "ELEMENT_SET_NO": 999, "REV_AT_EPOCH": 138, "BSTAR": -0.003504697, "MEAN_MOTION_DOT": -0.01265973, "MEAN_MOTION_DDOT": 0.00047498795}, "tle": {"line1": "1 67020U 25293T   25353.91668981 -.01265973  47499-3 -35047-2 0  9994", "line2": "2 67020  69.9939 302.9116 0003852 269.8449 224.7795 15.93662265  1387"}}, "geometry": {"type": "Point", "coordinates": [-177.14553716273392, -67.40369492090142]}}, {"type": "Feature", "properties": {"norad_id": 67021, "name": "STARLINK-36184", "group": "last-30-days", "lat": -68.45333204630388, "lon": -170.91649617772427, "alt_km": 298.8154603561579, "timestamp": "2025-12-20T07:33:49.516757+00:00", "meta": {"OBJECT_NAME": "STARLINK-36184", "OBJECT_ID": "2025-293U", "EPOCH": "2025-12-19T22:00:01.999584", "MEAN_MOTION": 15.93728325, "ECCENTRICITY": 0.00038243, "INCLINATION": 69.9941, "RA_OF_ASC_NODE": 302.9082, "ARG_OF_PERICENTER": 266.3659, "MEAN_ANOMALY": 230.7465, "EPHEMERIS_TYPE": 0, "CLASSIFICATION_TYPE": "U", "NORAD_CAT_ID": 67021, "ELEMENT_SET_NO": 999, "REV_AT_EPOCH": 138, "BSTAR": -0.0035750713, "MEAN_MOTION_DOT": -0.01295571, "MEAN_MOTION_DDOT": 0.00049600699}, "tle": {"line1": "1 67021U 25293U   25353.91668981 -.01295571  49601-3 -35751-2 0  9991", "line2": "2 67021  69.9941 302.9082 0003824 266.3659 230.7465 15.93728325  1388"}}, "geometry": {"type": "Point", "coordinates": [-170.91649617772427, -68.45333204630388]}}, {"type": "Feature", "properties": {"norad_id": 67022, "name": "STARLINK-36209", "group": "last-30-days", "lat": -69.3592270037255, "lon": -162.95245289685477, "alt_km": 298.6884943092673, "timestamp": "2025-12-20T07:33:49.516769+00:00", "meta": {"OBJECT_NAME": "STARLINK-36209", "OBJECT_ID": "2025-293V", "EPOCH": "2025-12-19T22:00:01.999584", "MEAN_MOTION": 15.93803498, "ECCENTRICITY": 0.00038248, "INCLINATION": 69.9939, "RA_OF_ASC_NODE": 302.9048, "ARG_OF_PERICENTER": 267.314, "MEAN_ANOMALY": 232.7211, "EPHEMERIS_TYPE": 0, "CLASSIFICATION_TYPE": "U", "NORAD_CAT_ID": 67022, "ELEMENT_SET_NO": 999, "REV_AT_EPOCH": 138, "BSTAR": -0.003662204, "MEAN_MOTION_DOT": -0.01332026, "MEAN_MOTION_DDOT": 0.00052245725}, "tle": {"line1": "1 67022U 25293V   25353.91668981 -.01332026  52246-3 -36622-2 0  9996", "line2": "2 67022  69.9939 302.9048 0003824 267.3140 232.7211 15.93803498  1380"}}, "geometry": {"type": "Point", "coordinates": [-162.95245289685477, -69.3592270037255]}}, {"type": "Feature", "properties": {"norad_id": 67023, "name": "STARLINK-36191", "group": "last-30-days", "lat": -69.80896137695518, "lon": -156.04080263308387, "alt_km": 298.56251384636107, "timestamp": "2025-12-20T07:33:49.516779+00:00", "meta": {"OBJECT_NAME": "STARLINK-36191", "OBJECT_ID": "2025-293W", "EPOCH": "2025-12-19T22:00:01.999584", "MEAN_MOTION": 15.93862143, "ECCENTRICITY": 0.0003849, "INCLINATION": 69.9938, "RA_OF_ASC_NODE": 302.9015, "ARG_OF_PERICENTER": 268.5809, "MEAN_ANOMALY": 233.8408, "EPHEMERIS_TYPE": 0, "CLASSIFICATION_TYPE": "U", "NORAD_CAT_ID": 67023, "ELEMENT_SET_NO": 999, "REV_AT_EPOCH": 130, "BSTAR": -0.0037175288, "MEAN_MOTION_DOT": -0.01356087, "MEAN_MOTION_DDOT": 0.0005403236}, "tle": {"line1": "1 67023U 25293W   25353.91668981 -.01356087  54032-3 -37175-2 0  9999", "line2": "2 67023  69.9938 302.9015 0003849 268.5809 233.8408 15.93862143  1300"}}, "geometry": {"type": "Point", "coordinates": [-156.04080263308387, -69.80896137695518]}}, {"type": "Feature", "properties": {"norad_id": 67024, "name": "STARLINK-36192", "group": "last-30-days", "lat": -69.98004179606181, "lon": -147.9427707679563, "alt_km": 298.4571553510659, "timestamp": "2025-12-20T07:33:49.516789+00:00", "meta": {"OBJECT_NAME": "STARLINK-36192", "OBJECT_ID": "2025-293X", "EPOCH": "2025-12-19T22:00:01.999584", "MEAN_MOTION": 15.93919811, "ECCENTRICITY": 0.00038295, "INCLINATION": 69.994, "RA_OF_ASC_NODE": 302.8985, "ARG_OF_PERICENTER": 266.985, "MEAN_ANOMALY": 238.1541, "EPHEMERIS_TYPE": 0, "CLASSIFICATION_TYPE": "U", "NORAD_CAT_ID": 67024, "ELEMENT_SET_NO": 999, "REV_AT_EPOCH": 138, "BSTAR": -0.0037504752, "MEAN_MOTION_DOT": -0.01372086, "MEAN_MOTION_DDOT": 0.00055246849}, "tle": {"line1": "1 67024U 25293X   25353.91668981 -.01372086  55247-3 -37505-2 0  9993", "line2": "2 67024  69.9940 302.8985 0003829 266.9850 238.1541 15.93919811  1384"}}, "geometry": {"type": "Point", "coordinates": [-147.9427707679563, -69.98004179606181]}}, {"type": "Feature", "properties": {"norad_id": 67025, "name": "STARLINK-36178", "group": "last-30-days", "lat": -69.84760034704566, "lon": -141.40757875203118, "alt_km": 298.333635340161, "timestamp": "2025-12-20T07:33:49.516799+00:00", "meta": {"OBJECT_NAME": "STARLINK-36178", "OBJECT_ID": "2025-293Y", "EPOCH": "2025-12-19T22:00:01.999584", "MEAN_MOTION": 15.93968454, "ECCENTRICITY": 0.00038492, "INCLINATION": 69.9939, "RA_OF_ASC_NODE": 302.8958, "ARG_OF_PERICENTER": 266.6881, "MEAN_ANOMALY": 240.6371, "EPHEMERIS_TYPE": 0, "CLASSIFICATION_TYPE": "U", "NORAD_CAT_ID": 67025, "ELEMENT_SET_NO": 999, "REV_AT_EPOCH": 138, "BSTAR": -0.00376226, "MEAN_MOTION_DOT": -0.01379858, "MEAN_MOTION_DDOT": 0.00055853367}, "tle": {"line1": "1 67025U 25293Y   25353.91668981 -.01379858  55853-3 -37623-2 0  9992", "line2": "2 67025  69.9939 302.8958 0003849 266.6881 240.6371 15.93968454  1382"}}, "geometry": {"type": "Point", "coordinates": [-141.40757875203118, -69.84760034704566]}}, {"type": "Feature", "properties": {"norad_id": 67026, "name": "STARLINK-36176", "group": "last-30-days", "lat": -68.72989365705504, "lon": -127.65834730974, "alt_km": 298.09261859145045, "timestamp": "2025-12-20T07:33:49.516809+00:00", "meta": {"OBJECT_NAME": "STARLINK-36176", "OBJECT_ID": "2025-293Z", "EPOCH": "2025-12-19T22:00:01.999584", "MEAN_MOTION": 15.94066285, "ECCENTRICITY": 0.00038641, "INCLINATION": 69.9937, "RA_OF_ASC_NODE": 302.8901, "ARG_OF_PERICENTER": 267.3021, "MEAN_ANOMALY": 244.8769, "EPHEMERIS_TYPE": 0, "CLASSIFICATION_TYPE": "U", "NORAD_CAT_ID": 67026, "ELEMENT_SET_NO": 999, "REV_AT_EPOCH": 138, "BSTAR": -0.0037721669, "MEAN_MOTION_DOT": -0.01390544, "MEAN_MOTION_DDOT": 0.00056710713}, "tle": {"line1": "1 67026U 25293Z   25353.91668981 -.01390544  56711-3 -37722-2 0  9992", "line2": "2 67026  69.9937 302.8901 0003864 267.3021 244.8769 15.94066285  1389"}}, "geometry": {"type": "Point", "coordinates": [-127.65834730974, -68.72989365705504]}}, {"type": "Feature", "properties": {"norad_id": 67027, "name": "STARLINK-36171", "group": "last-30-days", "lat": -69.33469898298344, "lon": -133.29181599767406, "alt_km": 298.24608153751615, "timestamp": "2025-12-20T07:33:49.516819+00:00", "meta": {"OBJECT_NAME": "STARLINK-36171", "OBJECT_ID": "2025-293AA", "EPOCH": "2025-12-19T22:00:01.999584", "MEAN_MOTION": 15.94021844, "ECCENTRICITY": 0.00037797, "INCLINATION": 69.9936, "RA_OF_ASC_NODE": 302.8927, "ARG_OF_PERICENTER": 268.4778, "MEAN_ANOMALY": 241.6553, "EPHEMERIS_TYPE": 0, "CLASSIFICATION_TYPE": "U", "NORAD_CAT_ID": 67027, "ELEMENT_SET_NO": 999, "REV_AT_EPOCH": 138, "BSTAR": -0.0037682157, "MEAN_MOTION_DOT": -0.0138584, "MEAN_MOTION_DDOT": 0.00056331618}, "tle": {"line1": "1 67027U 25293AA  25353.91668981 -.01385840  56332-3 -37682-2 0  9990", "line2": "2 67027  69.9936 302.8927 0003779 268.4778 241.6553 15.94021844  1381"}}, "geometry": {"type": "Point", "coordinates": [-133.29181599767406, -69.33469898298344]}}, {"type": "Feature", "properties": {"norad_id": 67028, "name": "STARLINK-36132", "group": "last-30-days", "lat": -66.60129305466252, "lon": -115.63187215425643, "alt_km": 297.86665186546634, "timestamp": "2025-12-20T07:33:49.516829+00:00", "meta": {"OBJECT_NAME": "STARLINK-36132", "OBJECT_ID": "2025-293AB", "EPOCH": "2025-12-19T22:00:01.999584", "MEAN_MOTION": 15.94167519, "ECCENTRICITY": 0.00038711, "INCLINATION": 69.9939, "RA_OF_ASC_NODE": 302.8842, "ARG_OF_PERICENTER": 267.3402, "MEAN_ANOMALY": 249.7422, "EPHEMERIS_TYPE": 0, "CLASSIFICATION_TYPE": "U", "NORAD_CAT_ID": 67028, "ELEMENT_SET_NO": 999, "REV_AT_EPOCH": 138, "BSTAR": -0.0037909154, "MEAN_MOTION_DOT": -0.01404795, "MEAN_MOTION_DDOT": 0.00057847822}, "tle": {"line1": "1 67028U 25293AB  25353.91668981 -.01404795  57848-3 -37909-2 0  9997", "line2": "2 67028  69.9939 302.8842 0003871 267.3402 249.7422 15.94167519  1380"}}, "geometry": {"type": "Point", "coordinates": [-115.63187215425643, -66.60129305466252]}}]}